ONEWEB-0620             
1 55161U 23004X   25208.64805794  .00000564  00000+0  15541-2 0  9999
2 55161  87.8808  85.7800 0001657  71.9588 288.1720 13.11417726123292
ONEWEB-0621             
1 55162U 23004Y   25208.90406172 -.00000217  00000+0 -64875-3 0  9998
2 55162  87.8810  85.6850 0001724  87.4113 272.7212 13.11414199123309
ONEWEB-0622             
1 55163U 23004Z   25208.90914693 -.00000417  00000+0 -12112-2 0  9999
2 55163  87.8806  85.7075 0001009  90.0867 270.0376 13.11415456123294
ONEWEB-0623             
1 55164U 23004AA  25208.84664751  .00000058  00000+0  11652-3 0  9998
2 55164  87.9037  70.4504 0001366 107.0870 253.0411 13.17649915124870
ONEWEB-0624             
1 55165U 23004AB  25208.92472413 -.00000045  00000+0 -15874-3 0  9998
2 55165  87.8854  55.1207 0001744  87.8946 272.2383 13.12943176125521
ONEWEB-0625             
1 55166U 23004AC  25208.91244925  .00000044  00000+0  81342-4 0  9994
2 55166  87.9037  70.4342 0001952  82.9568 277.1785 13.17647602124870
ONEWEB-0626             
1 55167U 23004AD  25208.90232459  .00000017  00000+0  11220-4 0  9991
2 55167  87.9038  70.4348 0001760  64.1660 295.9653 13.17650288124876
ONEWEB-0627             
1 55168U 23004AE  25208.89052465  .00000109  00000+0  24715-3 0  9991
2 55168  87.9036  70.4390 0001297  96.9921 263.1358 13.17649203124874
